[{"OBJECT_NAME":"STARLETTE","OBJECT_ID":"1975-010A","EPOCH":"2026-03-07T14:13:27.491520","MEAN_MOTION":13.82349091,"ECCENTRICITY":0.02055684,"INCLINATION":49.8227,"RA_OF_ASC_NODE":145.6079,"ARG_OF_PERICENTER":87.4168,"MEAN_ANOMALY":275.0238,"EPHEMERIS_TYPE":0,"CLASSIFICATION_TYPE":"U","NORAD_CAT_ID":7646,"ELEMENT_SET_NO":999,"REV_AT_EPOCH":58048,"BSTAR":1.3480127e-5,"MEAN_MOTION_DOT":-1.28e-6,"MEAN_MOTION_DDOT":0},{"OBJECT_NAME":"LAGEOS 1","OBJECT_ID":"1976-039A","EPOCH":"2026-03-07T10:42:02.571840","MEAN_MOTION":6.38664897,"ECCENTRICITY":0.00446621,"INCLINATION":109.8176,"RA_OF_ASC_NODE":144.5139,"ARG_OF_PERICENTER":324.0653,"MEAN_ANOMALY":33.1235,"EPHEMERIS_TYPE":0,"CLASSIFICATION_TYPE":"U","NORAD_CAT_ID":8820,"ELEMENT_SET_NO":999,"REV_AT_EPOCH":90663,"BSTAR":0,"MEAN_MOTION_DOT":-8.0e-8,"MEAN_MOTION_DDOT":0},{"OBJECT_NAME":"AJISAI (EGS)","OBJECT_ID":"1986-061A","EPOCH":"2026-03-07T15:17:15.110880","MEAN_MOTION":12.44515665,"ECCENTRICITY":0.00112571,"INCLINATION":50.008,"RA_OF_ASC_NODE":99.6602,"ARG_OF_PERICENTER":281.7221,"MEAN_ANOMALY":190.052,"EPHEMERIS_TYPE":0,"CLASSIFICATION_TYPE":"U","NORAD_CAT_ID":16908,"ELEMENT_SET_NO":999,"REV_AT_EPOCH":46774,"BSTAR":5.4288457e-5,"MEAN_MOTION_DOT":-9.0e-7,"MEAN_MOTION_DDOT":0},{"OBJECT_NAME":"COSMOS 1989 (ETALON 1)","OBJECT_ID":"1989-001C","EPOCH":"2026-03-06T14:54:11.143584","MEAN_MOTION":2.13156097,"ECCENTRICITY":0.00234164,"INCLINATION":64.8856,"RA_OF_ASC_NODE":75.7019,"ARG_OF_PERICENTER":217.5756,"MEAN_ANOMALY":242.2717,"EPHEMERIS_TYPE":0,"CLASSIFICATION_TYPE":"U","NORAD_CAT_ID":19751,"ELEMENT_SET_NO":999,"REV_AT_EPOCH":28918,"BSTAR":0,"MEAN_MOTION_DOT":-1.0e-8,"MEAN_MOTION_DDOT":0},{"OBJECT_NAME":"COSMOS 2024 (ETALON 2)","OBJECT_ID":"1989-039C","EPOCH":"2026-03-07T11:22:08.175936","MEAN_MOTION":2.13204631,"ECCENTRICITY":0.00204639,"INCLINATION":64.9956,"RA_OF_ASC_NODE":314.0419,"ARG_OF_PERICENTER":213.4028,"MEAN_ANOMALY":320.7723,"EPHEMERIS_TYPE":0,"CLASSIFICATION_TYPE":"U","NORAD_CAT_ID":20026,"ELEMENT_SET_NO":999,"REV_AT_EPOCH":28633,"BSTAR":0,"MEAN_MOTION_DOT":-5.6e-7,"MEAN_MOTION_DDOT":0},{"OBJECT_NAME":"LAGEOS 2","OBJECT_ID":"1992-070B","EPOCH":"2026-03-07T14:08:38.841216","MEAN_MOTION":6.4729334,"ECCENTRICITY":0.01377628,"INCLINATION":52.6789,"RA_OF_ASC_NODE":330.8705,"ARG_OF_PERICENTER":142.9035,"MEAN_ANOMALY":33.0328,"EPHEMERIS_TYPE":0,"CLASSIFICATION_TYPE":"U","NORAD_CAT_ID":22195,"ELEMENT_SET_NO":999,"REV_AT_EPOCH":78884,"BSTAR":0,"MEAN_MOTION_DOT":-9.0e-8,"MEAN_MOTION_DDOT":0},{"OBJECT_NAME":"STELLA","OBJECT_ID":"1993-061B","EPOCH":"2026-03-07T15:20:20.909760","MEAN_MOTION":14.27467517,"ECCENTRICITY":0.00066334,"INCLINATION":98.7845,"RA_OF_ASC_NODE":130.475,"ARG_OF_PERICENTER":163.365,"MEAN_ANOMALY":324.8232,"EPHEMERIS_TYPE":0,"CLASSIFICATION_TYPE":"U","NORAD_CAT_ID":22824,"ELEMENT_SET_NO":999,"REV_AT_EPOCH":69028,"BSTAR":8.467673e-6,"MEAN_MOTION_DOT":-2.4e-7,"MEAN_MOTION_DDOT":0},{"OBJECT_NAME":"LARETS","OBJECT_ID":"2003-042F","EPOCH":"2026-03-07T14:40:09.324192","MEAN_MOTION":14.63848018,"ECCENTRICITY":0.00121899,"INCLINATION":98.4012,"RA_OF_ASC_NODE":226.7506,"ARG_OF_PERICENTER":359.107,"MEAN_ANOMALY":1.0108,"EPHEMERIS_TYPE":0,"CLASSIFICATION_TYPE":"U","NORAD_CAT_ID":27944,"ELEMENT_SET_NO":999,"REV_AT_EPOCH":19850,"BSTAR":3.3129369e-5,"MEAN_MOTION_DOT":1.23e-6,"MEAN_MOTION_DDOT":0},{"OBJECT_NAME":"LARES","OBJECT_ID":"2012-006A","EPOCH":"2026-03-07T14:11:41.967744","MEAN_MOTION":12.54932196,"ECCENTRICITY":0.00074375,"INCLINATION":69.4878,"RA_OF_ASC_NODE":105.7833,"ARG_OF_PERICENTER":152.5487,"MEAN_ANOMALY":207.5933,"EPHEMERIS_TYPE":0,"CLASSIFICATION_TYPE":"U","NORAD_CAT_ID":38077,"ELEMENT_SET_NO":999,"REV_AT_EPOCH":64432,"BSTAR":2.8129006e-5,"MEAN_MOTION_DOT":-3.4e-7,"MEAN_MOTION_DDOT":0},{"OBJECT_NAME":"LARES-2","OBJECT_ID":"2022-080A","EPOCH":"2026-03-06T00:34:32.699712","MEAN_MOTION":6.38965015,"ECCENTRICITY":0.00053097,"INCLINATION":70.1755,"RA_OF_ASC_NODE":340.7064,"ARG_OF_PERICENTER":356.7815,"MEAN_ANOMALY":3.2821,"EPHEMERIS_TYPE":0,"CLASSIFICATION_TYPE":"U","NORAD_CAT_ID":53105,"ELEMENT_SET_NO":999,"REV_AT_EPOCH":8507,"BSTAR":0,"MEAN_MOTION_DOT":-2.8e-7,"MEAN_MOTION_DDOT":0}]
